[Satellite]
VERSION=1.1
NAME=IRIDIUM 75 [+]
NICKNAME=IRIDIUM 75 [+]
TLE1=1 25346U 98032E   17186.13143490 -.00000015  00000-0 -12365-4 0  9999
TLE2=2 25346  86.3967 216.6104 0002233  86.9556 273.1895 14.34218398  1942
